{
"type": "FeatureCollection",
"name": "farms_at_risk",
"crs": { "type": "name", "properties": { "name": "urn:ogc:def:crs:OGC:1.3:CRS84" } },
"features": [
{ "type": "Feature", "properties": { "Name": "Tana Delta Farm A", "Crop_Type": "Maize/Sorghum", "Risk_Level": "Extreme" }, "geometry": { "type": "Polygon", "coordinates": [ [ [ 39.5, -0.4 ], [ 39.52, -0.4 ], [ 39.52, -0.42 ], [ 39.5, -0.42 ], [ 39.5, -0.4 ] ] ] } },
{ "type": "Feature", "properties": { "Name": "Garissa Irrigation Scheme B", "Crop_Type": "Mangoes/Bananas", "Risk_Level": "High Risk" }, "geometry": { "type": "Polygon", "coordinates": [ [ [ 39.6, -0.46 ], [ 39.62, -0.46 ], [ 39.62, -0.48 ], [ 39.6, -0.48 ], [ 39.6, -0.46 ] ] ] } },
{ "type": "Feature", "properties": { "Name": "Mororo Agro Farm", "Crop_Type": "Watermelons", "Risk_Level": "Extreme" }, "geometry": { "type": "Polygon", "coordinates": [ [ [ 39.7, -0.5 ], [ 39.72, -0.5 ], [ 39.72, -0.52 ], [ 39.7, -0.52 ], [ 39.7, -0.5 ] ] ] } }
]
}
