{
"type": "FeatureCollection",
"name": "idp_camps_risk_assessed",
"crs": { "type": "name", "properties": { "name": "urn:ogc:def:crs:OGC:1.3:CRS84" } },
"features": [
{ "type": "Feature", "properties": { "Id": "0.0", "Shape_Leng": "16726.3352269", "Shape_Area": "6414819.23026", "Camp_Name": "Hagadera", "Sample": "204", "Name": "Hagadera", "Risk_Level": "Medium Risk", "Distance_to_Flood_km": "0.84", "sub_county": "Dadaab Sub County", "Poverty_Rate": "0.78", "Food_Poverty_Rate": "0.58", "Avg_HH_Income": "5169", "Avg_HH_Expenditure": "6177", "HH_Cash_Gap": "-1008", "Post_Assistance_Income": "13927", "Post_Assistance_Expenditure": "11092", "Post_Assistance_Surplus": "2835", "Vulnerability_Index": "0.683", "Wasting_Rate": "0.17", "marker_emoji": "🏕️", "Author": "Garissa GIS Directorate — James M. Mburu", "NN_Vulnerability_Score": "0.551", "NN_Risk_Class": "High" }, "geometry": { "type": "MultiPolygon", "coordinates": [ [ [ [ 40.379683053886119, -0.014533296416269 ], [ 40.376558631840439, -0.010967036994494 ], [ 40.375043760386866, -0.011913831388813 ], [ 40.374712382133978, -0.013618061073629 ], [ 40.373986506215196, -0.014959353693007 ], [ 40.370893643699517, -0.014407057254389 ], [ 40.369891674065727, -0.013076069056943 ], [ 40.370587209791566, -0.011484065511384 ], [ 40.367338298546485, -0.009211279579492 ], [ 40.361863042341348, -0.005596144893529 ], [ 40.357531061855703, -0.002705474111964 ], [ 40.353798253791801, -0.00060240256905 ], [ 40.350409035420398, 0.000787661394623 ], [ 40.350611577222736, 0.001485304452117 ], [ 40.35673283120456, 0.00956446039248 ], [ 40.358330659189434, 0.010014552655062 ], [ 40.364339390796204, 0.006683869365326 ], [ 40.378430536275474, -0.002966858762983 ], [ 40.381553545644429, -0.003921112322022 ], [ 40.382282248024879, -0.004337512931099 ], [ 40.382802749626549, -0.004216062977038 ], [ 40.385283806789687, -0.005742867184672 ], [ 40.386897361788613, -0.007876923817464 ], [ 40.385647859354023, -0.011014376975785 ], [ 40.38449592595537, -0.011093276175323 ], [ 40.385127122097302, -0.012687046746758 ], [ 40.384006748937509, -0.014817334405595 ], [ 40.381339944368776, -0.01331824287153 ], [ 40.379683053886119, -0.014533296416269 ] ] ], [ [ [ 40.390429216390132, 0.00496073182681 ], [ 40.389113797795225, 0.004892245000113 ], [ 40.386720851805713, 0.004209812441418 ], [ 40.380277512108563, 0.001394122046893 ], [ 40.379916340532723, 0.001483798376193 ], [ 40.378170035456513, 0.005248988049638 ], [ 40.376848438066318, 0.007879715996874 ], [ 40.37687337336704, 0.00861532186084 ], [ 40.385223528109393, 0.012400126353969 ], [ 40.389650908926377, 0.014285222862034 ], [ 40.390169742627947, 0.012711426458001 ], [ 40.391691655646163, 0.013143788455269 ], [ 40.392418022366201, 0.010930097244385 ], [ 40.393317334639995, 0.010151846850626 ], [ 40.393490278643213, 0.00920065145331 ], [ 40.391017171269439, 0.008111100776014 ], [ 40.391380354737478, 0.00641624383467 ], [ 40.392660144956693, 0.006520011099571 ], [ 40.392884972938226, 0.005326692849096 ], [ 40.391294037315419, 0.005246755518802 ], [ 40.390429216390132, 0.00496073182681 ] ] ] ] } },
{ "type": "Feature", "properties": { "Id": "0.0", "Shape_Leng": "13457.3667808", "Shape_Area": "7088683.35949", "Camp_Name": "Ifo", "Sample": "204", "Name": "Ifo", "Risk_Level": "High Risk", "Distance_to_Flood_km": "0.0", "sub_county": "Dadaab Sub County", "Poverty_Rate": "0.78", "Food_Poverty_Rate": "0.58", "Avg_HH_Income": "5169", "Avg_HH_Expenditure": "6177", "HH_Cash_Gap": "-1008", "Post_Assistance_Income": "13927", "Post_Assistance_Expenditure": "11092", "Post_Assistance_Surplus": "2835", "Vulnerability_Index": "0.79", "Wasting_Rate": "0.17", "marker_emoji": "🏕️", "Author": "Garissa GIS Directorate — James M. Mburu", "NN_Vulnerability_Score": "0.551", "NN_Risk_Class": "High" }, "geometry": { "type": "Polygon", "coordinates": [ [ [ 40.328203026317347, 0.114753281507546 ], [ 40.328090566908237, 0.112256691943698 ], [ 40.328068074761248, 0.110614790990724 ], [ 40.328360468597168, 0.107241021239822 ], [ 40.318933592288026, 0.106153254207356 ], [ 40.317981292605218, 0.10500489532107 ], [ 40.314032053302718, 0.104584764359864 ], [ 40.313810286448366, 0.101449983886825 ], [ 40.314469305128874, 0.099899355234148 ], [ 40.313975491690613, 0.097415785252737 ], [ 40.309084176672243, 0.098134088788897 ], [ 40.30901576661585, 0.104769848478006 ], [ 40.306074137105703, 0.104769848165212 ], [ 40.305838460504681, 0.107612707795017 ], [ 40.305071520431895, 0.109730176456784 ], [ 40.305205398920442, 0.111169368676826 ], [ 40.305430039409011, 0.115532549983142 ], [ 40.306993720510306, 0.116323374713725 ], [ 40.307011694006427, 0.117473666385695 ], [ 40.306730173482535, 0.122468132523544 ], [ 40.301380810526773, 0.122176907034125 ], [ 40.30062507037416, 0.126455425659632 ], [ 40.300620779428385, 0.128905054291829 ], [ 40.308643202714556, 0.129158253287581 ], [ 40.308643203413759, 0.127918911415656 ], [ 40.314643281363821, 0.128528932744258 ], [ 40.315908378653063, 0.12740981084007 ], [ 40.317879011332124, 0.1271908525963 ], [ 40.323789511214187, 0.127441287547101 ], [ 40.325265096563257, 0.127736403368222 ], [ 40.327724405401561, 0.127293729164616 ], [ 40.328363825185157, 0.123186693035227 ], [ 40.329519700465873, 0.122080006171731 ], [ 40.331929823520717, 0.121784890027317 ], [ 40.331634706430314, 0.120014191037197 ], [ 40.330355865556555, 0.11890750495046 ], [ 40.32878190785901, 0.118268085874578 ], [ 40.328900273073039, 0.115945345640237 ], [ 40.328203026317347, 0.114753281507546 ] ] ] } },
{ "type": "Feature", "properties": { "Id": "0.0", "Shape_Leng": "12083.2386156", "Shape_Area": "9316678.27923", "Camp_Name": "Ifo 2", "Sample": "203", "Name": "Ifo 2", "Risk_Level": "Medium Risk", "Distance_to_Flood_km": "1.1", "sub_county": "Dadaab Sub County", "Poverty_Rate": "0.78", "Food_Poverty_Rate": "0.58", "Avg_HH_Income": "5169", "Avg_HH_Expenditure": "6177", "HH_Cash_Gap": "-1008", "Post_Assistance_Income": "13927", "Post_Assistance_Expenditure": "11092", "Post_Assistance_Surplus": "2835", "Vulnerability_Index": "0.678", "Wasting_Rate": "0.17", "marker_emoji": "🏕️", "Author": "Garissa GIS Directorate — James M. Mburu", "NN_Vulnerability_Score": "0.551", "NN_Risk_Class": "High" }, "geometry": { "type": "Polygon", "coordinates": [ [ [ 40.300648679856621, 0.157950988915433 ], [ 40.313972927962382, 0.157871383681918 ], [ 40.324147054606854, 0.157444924364046 ], [ 40.336624067461692, 0.157249159529497 ], [ 40.33624715770825, 0.140054333397367 ], [ 40.334947988546446, 0.138918928539952 ], [ 40.327985815948615, 0.136340353427229 ], [ 40.325771665816241, 0.135713385157975 ], [ 40.319650130687442, 0.135219505397446 ], [ 40.316036995772997, 0.135830357361531 ], [ 40.313502602702805, 0.135167518032059 ], [ 40.30914864495233, 0.136649158733072 ], [ 40.304235820613521, 0.138377740228883 ], [ 40.302988119237661, 0.138754648445484 ], [ 40.299933850351678, 0.141483986877065 ], [ 40.2994659624962, 0.147254587883387 ], [ 40.300648679856621, 0.157950988915433 ] ] ] } },
{ "type": "Feature", "properties": { "Id": "0.0", "Shape_Leng": "10816.0472024", "Shape_Area": "5890693.45561", "Camp_Name": "Dagahaley", "Sample": "204", "Name": "Dagahaley", "Risk_Level": "High Risk", "Distance_to_Flood_km": "0.0", "sub_county": "Dadaab Sub County", "Poverty_Rate": "0.78", "Food_Poverty_Rate": "0.58", "Avg_HH_Income": "5169", "Avg_HH_Expenditure": "6177", "HH_Cash_Gap": "-1008", "Post_Assistance_Income": "13927", "Post_Assistance_Expenditure": "11092", "Post_Assistance_Surplus": "2835", "Vulnerability_Index": "0.79", "Wasting_Rate": "0.17", "marker_emoji": "🏕️", "Author": "Garissa GIS Directorate — James M. Mburu", "NN_Vulnerability_Score": "0.551", "NN_Risk_Class": "High" }, "geometry": { "type": "Polygon", "coordinates": [ [ [ 40.281922969410353, 0.200590420656699 ], [ 40.281012166503054, 0.202090556549256 ], [ 40.281547933004539, 0.204340760243541 ], [ 40.285244718817005, 0.203322810270246 ], [ 40.293977706262424, 0.196357893510507 ], [ 40.294670838075319, 0.196764244333118 ], [ 40.295699383836819, 0.196562209346344 ], [ 40.296287124939298, 0.197333615335779 ], [ 40.297168736230269, 0.197076479712338 ], [ 40.297327574692908, 0.196553476684279 ], [ 40.299851469742379, 0.196276735502435 ], [ 40.301058068457692, 0.19545758151471 ], [ 40.30103927871167, 0.192189570348394 ], [ 40.297685432804172, 0.191363265612382 ], [ 40.297004942368993, 0.191784518591583 ], [ 40.29550886163647, 0.189947329487266 ], [ 40.291516887169713, 0.18400039522404 ], [ 40.288939256404078, 0.180036292422082 ], [ 40.286567271234908, 0.17686891525457 ], [ 40.286424318431216, 0.176656061605904 ], [ 40.285775618226403, 0.177052746293188 ], [ 40.284762120810818, 0.175291978060442 ], [ 40.274821305022691, 0.182194002739765 ], [ 40.272100644542192, 0.184615711195364 ], [ 40.272066282778191, 0.187421933372747 ], [ 40.271212645671348, 0.190058830262151 ], [ 40.271814522245791, 0.191847730230349 ], [ 40.2731353062293, 0.192232260027373 ], [ 40.273720463535355, 0.194388971362121 ], [ 40.273469681774529, 0.194974125481475 ], [ 40.273386087681168, 0.195977247458062 ], [ 40.274155152332682, 0.197415054717794 ], [ 40.27426151361346, 0.198688462545541 ], [ 40.27568129445492, 0.201179759303333 ], [ 40.27691355577516, 0.201554793978578 ], [ 40.279726328208191, 0.200777937356838 ], [ 40.281172896909062, 0.199733200362849 ], [ 40.281922969410353, 0.200590420656699 ] ] ] } }
]
}
