{
"type": "FeatureCollection",
"name": "idp_camps",
"crs": { "type": "name", "properties": { "name": "urn:ogc:def:crs:OGC:1.3:CRS84" } },
"features": [
{ "type": "Feature", "properties": { "Id": 0.0, "Shape_Leng": 10816.047202399999, "Shape_Area": 5890693.4556099996, "Camp_Name": "Dagahaley", "Sample": 204, "Name": "Dagahaley" }, "geometry": { "type": "Polygon", "coordinates": [ [ [ 40.284762120810818, 0.175291978060442 ], [ 40.274821305022691, 0.182194002739765 ], [ 40.272100644542192, 0.184615711195364 ], [ 40.272066282778191, 0.187421933372747 ], [ 40.271212645671348, 0.190058830262151 ], [ 40.271814522245791, 0.191847730230349 ], [ 40.2731353062293, 0.192232260027373 ], [ 40.273720463535355, 0.194388971362121 ], [ 40.273469681774529, 0.194974125481475 ], [ 40.273386087681168, 0.195977247458062 ], [ 40.274155152332682, 0.197415054717794 ], [ 40.27426151361346, 0.198688462545541 ], [ 40.27568129445492, 0.201179759303333 ], [ 40.27691355577516, 0.201554793978578 ], [ 40.279726328208191, 0.200777937356838 ], [ 40.281172896909062, 0.199733200362849 ], [ 40.281922969410353, 0.200590420656699 ], [ 40.281012166503054, 0.202090556549256 ], [ 40.281547933004539, 0.204340760243541 ], [ 40.285244718817005, 0.203322810270246 ], [ 40.293977706262424, 0.196357893510507 ], [ 40.294670838075319, 0.196764244333118 ], [ 40.295699383836819, 0.196562209346344 ], [ 40.296287124939298, 0.197333615335779 ], [ 40.297168736230269, 0.197076479712338 ], [ 40.297327574692908, 0.196553476684279 ], [ 40.299851469742379, 0.196276735502435 ], [ 40.301058068457692, 0.19545758151471 ], [ 40.30103927871167, 0.192189570348394 ], [ 40.297685432804172, 0.191363265612382 ], [ 40.297004942368993, 0.191784518591583 ], [ 40.29550886163647, 0.189947329487266 ], [ 40.291516887169713, 0.18400039522404 ], [ 40.288939256404078, 0.180036292422082 ], [ 40.286567271234908, 0.17686891525457 ], [ 40.286424318431216, 0.176656061605904 ], [ 40.285775618226403, 0.177052746293188 ], [ 40.284762120810818, 0.175291978060442 ] ] ] } },
{ "type": "Feature", "properties": { "Id": 0.0, "Shape_Leng": 16726.335226899999, "Shape_Area": 6414819.2302599996, "Camp_Name": "Hagadera", "Sample": 204, "Name": "Hagadera" }, "geometry": { "type": "MultiPolygon", "coordinates": [ [ [ [ 40.350409035420398, 0.000787661394623 ], [ 40.350611577222736, 0.001485304452117 ], [ 40.35673283120456, 0.00956446039248 ], [ 40.358330659189434, 0.010014552655062 ], [ 40.364339390796204, 0.006683869365326 ], [ 40.378430536275474, -0.002966858762983 ], [ 40.381553545644429, -0.003921112322022 ], [ 40.382282248024879, -0.004337512931099 ], [ 40.382802749626549, -0.004216062977038 ], [ 40.385283806789687, -0.005742867184672 ], [ 40.386897361788613, -0.007876923817464 ], [ 40.385647859354023, -0.011014376975785 ], [ 40.38449592595537, -0.011093276175323 ], [ 40.385127122097302, -0.012687046746758 ], [ 40.384006748937509, -0.014817334405595 ], [ 40.381339944368776, -0.01331824287153 ], [ 40.379683053886119, -0.014533296416269 ], [ 40.376558631840439, -0.010967036994494 ], [ 40.375043760386866, -0.011913831388813 ], [ 40.374712382133978, -0.013618061073629 ], [ 40.373986506215196, -0.014959353693007 ], [ 40.370893643699517, -0.014407057254389 ], [ 40.369891674065727, -0.013076069056943 ], [ 40.370587209791566, -0.011484065511384 ], [ 40.367338298546485, -0.009211279579492 ], [ 40.361863042341348, -0.005596144893529 ], [ 40.357531061855703, -0.002705474111964 ], [ 40.353798253791801, -0.00060240256905 ], [ 40.350409035420398, 0.000787661394623 ] ] ], [ [ [ 40.379916340532723, 0.001483798376193 ], [ 40.378170035456513, 0.005248988049638 ], [ 40.376848438066318, 0.007879715996874 ], [ 40.37687337336704, 0.00861532186084 ], [ 40.385223528109393, 0.012400126353969 ], [ 40.389650908926377, 0.014285222862034 ], [ 40.390169742627947, 0.012711426458001 ], [ 40.391691655646163, 0.013143788455269 ], [ 40.392418022366201, 0.010930097244385 ], [ 40.393317334639995, 0.010151846850626 ], [ 40.393490278643213, 0.00920065145331 ], [ 40.391017171269439, 0.008111100776014 ], [ 40.391380354737478, 0.00641624383467 ], [ 40.392660144956693, 0.006520011099571 ], [ 40.392884972938226, 0.005326692849096 ], [ 40.391294037315419, 0.005246755518802 ], [ 40.390429216390132, 0.00496073182681 ], [ 40.389113797795225, 0.004892245000113 ], [ 40.386720851805713, 0.004209812441418 ], [ 40.380277512108563, 0.001394122046893 ], [ 40.379916340532723, 0.001483798376193 ] ] ] ] } },
{ "type": "Feature", "properties": { "Id": 0.0, "Shape_Leng": 13457.366780799999, "Shape_Area": 7088683.3594899997, "Camp_Name": "Ifo", "Sample": 204, "Name": "Ifo" }, "geometry": { "type": "Polygon", "coordinates": [ [ [ 40.300620779428385, 0.128905054291829 ], [ 40.308643202714556, 0.129158253287581 ], [ 40.308643203413759, 0.127918911415656 ], [ 40.314643281363821, 0.128528932744258 ], [ 40.315908378653063, 0.12740981084007 ], [ 40.317879011332124, 0.1271908525963 ], [ 40.323789511214187, 0.127441287547101 ], [ 40.325265096563257, 0.127736403368222 ], [ 40.327724405401561, 0.127293729164616 ], [ 40.328363825185157, 0.123186693035227 ], [ 40.329519700465873, 0.122080006171731 ], [ 40.331929823520717, 0.121784890027317 ], [ 40.331634706430314, 0.120014191037197 ], [ 40.330355865556555, 0.11890750495046 ], [ 40.32878190785901, 0.118268085874578 ], [ 40.328900273073039, 0.115945345640237 ], [ 40.328203026317347, 0.114753281507546 ], [ 40.328090566908237, 0.112256691943698 ], [ 40.328068074761248, 0.110614790990724 ], [ 40.328360468597168, 0.107241021239822 ], [ 40.318933592288026, 0.106153254207356 ], [ 40.317981292605218, 0.10500489532107 ], [ 40.314032053302718, 0.104584764359864 ], [ 40.313810286448366, 0.101449983886825 ], [ 40.314469305128874, 0.099899355234148 ], [ 40.313975491690613, 0.097415785252737 ], [ 40.309084176672243, 0.098134088788897 ], [ 40.30901576661585, 0.104769848478006 ], [ 40.306074137105703, 0.104769848165212 ], [ 40.305838460504681, 0.107612707795017 ], [ 40.305071520431895, 0.109730176456784 ], [ 40.305205398920442, 0.111169368676826 ], [ 40.305430039409011, 0.115532549983142 ], [ 40.306993720510306, 0.116323374713725 ], [ 40.307011694006427, 0.117473666385695 ], [ 40.306730173482535, 0.122468132523544 ], [ 40.301380810526773, 0.122176907034125 ], [ 40.30062507037416, 0.126455425659632 ], [ 40.300620779428385, 0.128905054291829 ] ] ] } },
{ "type": "Feature", "properties": { "Id": 0.0, "Shape_Leng": 12083.238615599999, "Shape_Area": 9316678.2792300005, "Camp_Name": "Ifo 2", "Sample": 203, "Name": "Ifo 2" }, "geometry": { "type": "Polygon", "coordinates": [ [ [ 40.300648679856621, 0.157950988915433 ], [ 40.313972927962382, 0.157871383681918 ], [ 40.324147054606854, 0.157444924364046 ], [ 40.336624067461692, 0.157249159529497 ], [ 40.33624715770825, 0.140054333397367 ], [ 40.334947988546446, 0.138918928539952 ], [ 40.327985815948615, 0.136340353427229 ], [ 40.325771665816241, 0.135713385157975 ], [ 40.319650130687442, 0.135219505397446 ], [ 40.316036995772997, 0.135830357361531 ], [ 40.313502602702805, 0.135167518032059 ], [ 40.30914864495233, 0.136649158733072 ], [ 40.304235820613521, 0.138377740228883 ], [ 40.302988119237661, 0.138754648445484 ], [ 40.299933850351678, 0.141483986877065 ], [ 40.2994659624962, 0.147254587883387 ], [ 40.300648679856621, 0.157950988915433 ] ] ] } },
{ "type": "Feature", "properties": { "Id": null, "Shape_Leng": 0.090232287958700003, "Shape_Area": 0.00038696908392799999, "Camp_Name": null, "Sample": 202, "Name": "Kakuma_3" }, "geometry": { "type": "MultiPolygon", "coordinates": [ [ [ [ 34.79995223700007, 3.73777244200005, 0.0 ], [ 34.799941222000029, 3.737751800000069, 0.0 ], [ 34.79979497000005, 3.737846937000029, 0.0 ], [ 34.79995223700007, 3.73777244200005, 0.0 ] ] ], [ [ [ 34.818694984000047, 3.748663743000066, 0.0 ], [ 34.815400102000069, 3.743456653000067, 0.0 ], [ 34.81360556900006, 3.74113258400007, 0.0 ], [ 34.813443294000024, 3.740915752000035, 0.0 ], [ 34.813189785000077, 3.740968566000049, 0.0 ], [ 34.809091076000072, 3.742506605000074, 0.0 ], [ 34.807392867000033, 3.743038374000037, 0.0 ], [ 34.806306320000033, 3.743389904000026, 0.0 ], [ 34.80651404200006, 3.743789369000069, 0.0 ], [ 34.806683416000055, 3.74436460000004, 0.0 ], [ 34.805725977000066, 3.744684049000057, 0.0 ], [ 34.805126208000047, 3.744934743000044, 0.0 ], [ 34.804988766000065, 3.744974012000057, 0.0 ], [ 34.804584295000041, 3.745248896000021, 0.0 ], [ 34.804126155000063, 3.74538633700007, 0.0 ], [ 34.803990186000078, 3.74540474500003, 0.0 ], [ 34.803889024000057, 3.745144614000026, 0.0 ], [ 34.803763285000059, 3.745301787000074, 0.0 ], [ 34.802991342000041, 3.745358270000054, 0.0 ], [ 34.802370021000058, 3.749255645000062, 0.0 ], [ 34.803473336000025, 3.75086656000002, 0.0 ], [ 34.806184553000037, 3.754650214000037, 0.0 ], [ 34.806927306000034, 3.758042971000066, 0.0 ], [ 34.810197154000036, 3.761150870000051, 0.0 ], [ 34.810729276000075, 3.761590448000049, 0.0 ], [ 34.812487591000036, 3.764937416000066, 0.0 ], [ 34.816158458000075, 3.768029890000037, 0.0 ], [ 34.817631432000042, 3.769070998000075, 0.0 ], [ 34.81958254500006, 3.770034986000041, 0.0 ], [ 34.821826710000039, 3.772302287000059, 0.0 ], [ 34.823299571000064, 3.773730343000068, 0.0 ], [ 34.824189088000026, 3.773059161000049, 0.0 ], [ 34.826491796000028, 3.771327193000047, 0.0 ], [ 34.828636323000069, 3.767405226000051, 0.0 ], [ 34.827672335000045, 3.76528445100007, 0.0 ], [ 34.827248180000026, 3.764721482000027, 0.0 ], [ 34.826546396000026, 3.763796053000021, 0.0 ], [ 34.824950032000061, 3.762515877000055, 0.0 ], [ 34.824094010000067, 3.761937484000043, 0.0 ], [ 34.822883241000056, 3.760634172000039, 0.0 ], [ 34.821788150000032, 3.759084079000047, 0.0 ], [ 34.820885857000064, 3.757703647000028, 0.0 ], [ 34.820207209000046, 3.756716523000023, 0.0 ], [ 34.819258645000048, 3.755343804000063, 0.0 ], [ 34.818996440000035, 3.754156170000044, 0.0 ], [ 34.818587709000042, 3.752428703000021, 0.0 ], [ 34.818694984000047, 3.748663743000066, 0.0 ] ] ] ] } },
{ "type": "Feature", "properties": { "Id": null, "Shape_Leng": 0.14330989840800001, "Shape_Area": 0.00031096999207800002, "Camp_Name": null, "Sample": 202, "Name": "Kakuma_1" }, "geometry": { "type": "MultiPolygon", "coordinates": [ [ [ [ 34.833006775000058, 3.75181623900005, 0.0 ], [ 34.833027468000068, 3.751847846000032, 0.0 ], [ 34.833033230000069, 3.75183288900007, 0.0 ], [ 34.833006775000058, 3.75181623900005, 0.0 ] ] ], [ [ [ 34.833033230000069, 3.75183288900007, 0.0 ], [ 34.835914556000034, 3.753646311000068, 0.0 ], [ 34.836363826000024, 3.754470273000038, 0.0 ], [ 34.836713861000078, 3.75511881400007, 0.0 ], [ 34.836794595000072, 3.755277173000025, 0.0 ], [ 34.83823826400004, 3.754802428000062, 0.0 ], [ 34.839626754000051, 3.754333062000057, 0.0 ], [ 34.841344581000044, 3.75343510700003, 0.0 ], [ 34.842394365000075, 3.752873614000066, 0.0 ], [ 34.843926202000034, 3.751450225000042, 0.0 ], [ 34.844726011000034, 3.749105022000037, 0.0 ], [ 34.84409867200003, 3.748406036000063, 0.0 ], [ 34.842055330000051, 3.744736361000037, 0.0 ], [ 34.841233228000078, 3.743622353000035, 0.0 ], [ 34.840269268000043, 3.742362764000063, 0.0 ], [ 34.839859706000027, 3.739439981000032, 0.0 ], [ 34.840864994000071, 3.736563739000076, 0.0 ], [ 34.842593415000067, 3.735390903000052, 0.0 ], [ 34.843160635000061, 3.734183742000027, 0.0 ], [ 34.843655135000063, 3.73110039300002, 0.0 ], [ 34.843800576000035, 3.730155026000034, 0.0 ], [ 34.844600502000048, 3.730038673000024, 0.0 ], [ 34.845764030000055, 3.729166027000076, 0.0 ], [ 34.847116631000063, 3.727362558000038, 0.0 ], [ 34.848731027000042, 3.727464367000039, 0.0 ], [ 34.849355838000065, 3.725987659000054, 0.0 ], [ 34.849470218000079, 3.72575127500005, 0.0 ], [ 34.850304883000035, 3.724564168000029, 0.0 ], [ 34.850863665000077, 3.723783338000032, 0.0 ], [ 34.851522491000026, 3.722975666000025, 0.0 ], [ 34.851798514000052, 3.722231730000033, 0.0 ], [ 34.85180163800004, 3.721966248000058, 0.0 ], [ 34.851810422000028, 3.721411565000039, 0.0 ], [ 34.852396045000035, 3.720689297000035, 0.0 ], [ 34.852837702000045, 3.720345243000054, 0.0 ], [ 34.855208970000035, 3.718301001000043, 0.0 ], [ 34.856167717000062, 3.717453952000028, 0.0 ], [ 34.856344573000058, 3.71708162300007, 0.0 ], [ 34.856893759000059, 3.717342254000073, 0.0 ], [ 34.85745225200003, 3.716420739000057, 0.0 ], [ 34.858075903000042, 3.715313061000074, 0.0 ], [ 34.858466849000024, 3.712427511000044, 0.0 ], [ 34.85840169100004, 3.711533921000068, 0.0 ], [ 34.857647725000049, 3.711478072000034, 0.0 ], [ 34.857848038000043, 3.710625066000034, 0.0 ], [ 34.856483824000065, 3.710905057000048, 0.0 ], [ 34.85605490100005, 3.711959493000052, 0.0 ], [ 34.854887278000035, 3.711721202000035, 0.0 ], [ 34.854839619000074, 3.712340758000039, 0.0 ], [ 34.855661722000036, 3.713317749000055, 0.0 ], [ 34.856215747000078, 3.713865818000045, 0.0 ], [ 34.856533471000034, 3.71413607900007, 0.0 ], [ 34.856773967000038, 3.714320355000041, 0.0 ], [ 34.856890467000028, 3.714428672000054, 0.0 ], [ 34.856921450000073, 3.714454658000022, 0.0 ], [ 34.856871477000027, 3.714784480000048, 0.0 ], [ 34.856724556000074, 3.715653014000054, 0.0 ], [ 34.856689574000029, 3.71580293300002, 0.0 ], [ 34.85652766100003, 3.716158742000061, 0.0 ], [ 34.856468693000068, 3.716328651000026, 0.0 ], [ 34.856379741000069, 3.716571520000059, 0.0 ], [ 34.856370746000039, 3.716560526000023, 0.0 ], [ 34.856439709000028, 3.716333648000045, 0.0 ], [ 34.856464695000057, 3.71623869900003, 0.0 ], [ 34.856514668000045, 3.716132756000036, 0.0 ], [ 34.856649596000068, 3.71580293300002, 0.0 ], [ 34.856679580000048, 3.715713981000022, 0.0 ], [ 34.856703567000068, 3.715581053000051, 0.0 ], [ 34.856834579000065, 3.714471933000027, 0.0 ], [ 34.856461244000059, 3.714266965000036, 0.0 ], [ 34.855904902000077, 3.713932672000055, 0.0 ], [ 34.855277798000031, 3.713583739000057, 0.0 ], [ 34.854553089000035, 3.71337389100006, 0.0 ], [ 34.853901584000027, 3.713195764000034, 0.0 ], [ 34.852976788000035, 3.71293223300006, 0.0 ], [ 34.852732778000075, 3.712558899000044, 0.0 ], [ 34.852036131000034, 3.711530093000022, 0.0 ], [ 34.851063905000046, 3.711716913000032, 0.0 ], [ 34.85105628000008, 3.711941860000024, 0.0 ], [ 34.850061179000079, 3.712029550000068, 0.0 ], [ 34.85008786700007, 3.712799706000055, 0.0 ], [ 34.851185758000042, 3.712729705000072, 0.0 ], [ 34.851310202000036, 3.713337289000037, 0.0 ], [ 34.849831505000054, 3.713961954000069, 0.0 ], [ 34.846880714000065, 3.715712570000051, 0.0 ], [ 34.846392219000052, 3.71752953500004, 0.0 ], [ 34.84645179100005, 3.718899706000059, 0.0 ], [ 34.845611817000076, 3.719960099000048, 0.0 ], [ 34.844515680000029, 3.721550689000026, 0.0 ], [ 34.844205903000045, 3.722200030000067, 0.0 ], [ 34.844152287000043, 3.722742141000026, 0.0 ], [ 34.843640677000053, 3.72500018300002, 0.0 ], [ 34.842485445000079, 3.725537766000059, 0.0 ], [ 34.842355815000076, 3.725084061000075, 0.0 ], [ 34.84137215100003, 3.725354759000027, 0.0 ], [ 34.840403738000077, 3.725312820000056, 0.0 ], [ 34.839767026000061, 3.724496913000053, 0.0 ], [ 34.839549705000024, 3.724249091000047, 0.0 ], [ 34.839092187000062, 3.724489288000029, 0.0 ], [ 34.838436259000048, 3.725745175000043, 0.0 ], [ 34.838726630000053, 3.726201472000071, 0.0 ], [ 34.839450576000047, 3.727524157000062, 0.0 ], [ 34.839523016000044, 3.727878733000068, 0.0 ], [ 34.839696253000056, 3.729187901000046, 0.0 ], [ 34.839472323000052, 3.729847951000067, 0.0 ], [ 34.839244693000069, 3.730635278000022, 0.0 ], [ 34.839310521000073, 3.732486737000045, 0.0 ], [ 34.839236055000072, 3.734860334000075, 0.0 ], [ 34.83913366400003, 3.736116945000049, 0.0 ], [ 34.838845109000033, 3.737085, 0.0 ], [ 34.838258691000078, 3.737457329000051, 0.0 ], [ 34.837635040000066, 3.737475945000028, 0.0 ], [ 34.837067238000031, 3.736740596000061, 0.0 ], [ 34.836564594000038, 3.73595870500003, 0.0 ], [ 34.83580132000003, 3.735800465000068, 0.0 ], [ 34.834823956000037, 3.738983878000056, 0.0 ], [ 34.835800203000076, 3.741632627000058, 0.0 ], [ 34.835085331000073, 3.742800250000073, 0.0 ], [ 34.833190053000067, 3.744014169000025, 0.0 ], [ 34.833053408000069, 3.744936525000071, 0.0 ], [ 34.833090010000035, 3.745444065000072, 0.0 ], [ 34.833421863000069, 3.746654353000054, 0.0 ], [ 34.833536442000025, 3.747089481000046, 0.0 ], [ 34.833500699000069, 3.749079207000023, 0.0 ], [ 34.833464955000068, 3.75071224200002, 0.0 ], [ 34.833033230000069, 3.75183288900007, 0.0 ] ] ] ] } },
{ "type": "Feature", "properties": { "Id": null, "Shape_Leng": 0.055590134227600001, "Shape_Area": 0.000159358709475, "Camp_Name": null, "Sample": 202, "Name": "Kakuma_4" }, "geometry": { "type": "Polygon", "coordinates": [ [ [ 34.816206545000057, 3.739548857000045, 0.0 ], [ 34.819239223000068, 3.738041566000049, 0.0 ], [ 34.820605886000067, 3.737268504000042, 0.0 ], [ 34.819829439000046, 3.734460080000076, 0.0 ], [ 34.816950094000049, 3.729727365000031, 0.0 ], [ 34.804592504000027, 3.735574421000024, 0.0 ], [ 34.79995223700007, 3.73777244200005, 0.0 ], [ 34.802482988000065, 3.742515258000026, 0.0 ], [ 34.803913908000027, 3.745113508000031, 0.0 ], [ 34.803889024000057, 3.745144614000026, 0.0 ], [ 34.803990186000078, 3.74540474500003, 0.0 ], [ 34.804126155000063, 3.74538633700007, 0.0 ], [ 34.804584295000041, 3.745248896000021, 0.0 ], [ 34.804988766000065, 3.744974012000057, 0.0 ], [ 34.805126208000047, 3.744934743000044, 0.0 ], [ 34.805725977000066, 3.744684049000057, 0.0 ], [ 34.806683416000055, 3.74436460000004, 0.0 ], [ 34.80651404200006, 3.743789369000069, 0.0 ], [ 34.806306320000033, 3.743389904000026, 0.0 ], [ 34.807392867000033, 3.743038374000037, 0.0 ], [ 34.809091076000072, 3.742506605000074, 0.0 ], [ 34.813189785000077, 3.740968566000049, 0.0 ], [ 34.813443294000024, 3.740915752000035, 0.0 ], [ 34.813414465000051, 3.74087723100007, 0.0 ], [ 34.816197982000062, 3.739503547000027, 0.0 ], [ 34.816206545000057, 3.739548857000045, 0.0 ] ] ] } },
{ "type": "Feature", "properties": { "Id": null, "Shape_Leng": 0.0750810765587, "Shape_Area": 0.00014383852211800001, "Camp_Name": null, "Sample": 202, "Name": "Kakuma_2" }, "geometry": { "type": "MultiPolygon", "coordinates": [ [ [ [ 34.827813308000145, 3.752323204000049, 0.0 ], [ 34.828532367000037, 3.752273231000061, 0.0 ], [ 34.828629537000097, 3.752284336, 0.0 ], [ 34.829312503000097, 3.751909537000188, 0.0 ], [ 34.82900711200017, 3.751365385000099, 0.0 ], [ 34.828289257, 3.750108172000068, 0.0 ], [ 34.82784190600006, 3.74915924600009, 0.0 ], [ 34.82708954400016, 3.748596669000165, 0.0 ], [ 34.826479520000134, 3.748054425000078, 0.0 ], [ 34.826296513000159, 3.747939199000143, 0.0 ], [ 34.824988350000183, 3.748461108000072, 0.0 ], [ 34.824656226000059, 3.748562778000121, 0.0 ], [ 34.824704215000054, 3.748567930000036, 0.0 ], [ 34.825498059000154, 3.750463613000079, 0.0 ], [ 34.825900447000095, 3.751157164, 0.0 ], [ 34.826916568000058, 3.752581399000178, 0.0 ], [ 34.827813308000145, 3.752323204000049, 0.0 ] ] ], [ [ [ 34.822741879000034, 3.744140635000065, 0.0 ], [ 34.822096509000119, 3.742866442000093, 0.0 ], [ 34.822410920000095, 3.74271751100008, 0.0 ], [ 34.82194757700006, 3.741857017000143, 0.0 ], [ 34.821401495000146, 3.74116200300017, 0.0 ], [ 34.821020892000035, 3.741393674000051, 0.0 ], [ 34.820623741000077, 3.739540303000126, 0.0 ], [ 34.820077658000116, 3.739358276000075, 0.0 ], [ 34.820259686000099, 3.738928029000078, 0.0 ], [ 34.819928727000161, 3.738084083000047, 0.0 ], [ 34.820607193000171, 3.73727323300011, 0.0 ], [ 34.820605886000124, 3.737268504000156, 0.0 ], [ 34.819239223000125, 3.738041566, 0.0 ], [ 34.816206545, 3.739548857000102, 0.0 ], [ 34.816776375000074, 3.742564210000126, 0.0 ], [ 34.818788700000084, 3.742708809000078, 0.0 ], [ 34.820222633000128, 3.741949668000075, 0.0 ], [ 34.8203792810001, 3.742106316000047, 0.0 ], [ 34.820162384000014, 3.742407562000096, 0.0 ], [ 34.82004188500008, 3.743371551000052, 0.0 ], [ 34.819258645000104, 3.743974043000151, 0.0 ], [ 34.818836900000122, 3.743467949000035, 0.0 ], [ 34.818523604000177, 3.743407700000091, 0.0 ], [ 34.81714992000019, 3.743986093000103, 0.0 ], [ 34.817342718000134, 3.745914069999969, 0.0 ], [ 34.818317792000187, 3.746768164000116, 0.0 ], [ 34.818896185000142, 3.747261726000147, 0.0 ], [ 34.818950168000072, 3.747331133000102, 0.0 ], [ 34.818633980000072, 3.747716728000114, 0.0 ], [ 34.819065847000161, 3.749181990000181, 0.0 ], [ 34.819011864000061, 3.749567586000126, 0.0 ], [ 34.819304916000135, 3.749937757000112, 0.0 ], [ 34.819389747000116, 3.750223098, 0.0 ], [ 34.819166102, 3.7503542, 0.0 ], [ 34.819366611000191, 3.751079119000053, 0.0 ], [ 34.818811354000161, 3.751410731000135, 0.0 ], [ 34.819304916000135, 3.753261589000147, 0.0 ], [ 34.819073559000117, 3.754125323000039, 0.0 ], [ 34.819320340000161, 3.755167972000038, 0.0 ], [ 34.820376563000082, 3.756791791000012, 0.0 ], [ 34.820992133, 3.757695405, 0.0 ], [ 34.821965043000034, 3.75873149, 0.0 ], [ 34.822293558000126, 3.759063164000111, 0.0 ], [ 34.822792264000043, 3.759570320000137, 0.0 ], [ 34.824174985000127, 3.761861299000088, 0.0 ], [ 34.825435701000174, 3.762145976999989, 0.0 ], [ 34.827814794000119, 3.76230865000008, 0.0 ], [ 34.829265295000141, 3.763054234000094, 0.0 ], [ 34.829814317000057, 3.762905117000116, 0.0 ], [ 34.830532789000188, 3.762403542000072, 0.0 ], [ 34.82965842200008, 3.760526024000171, 0.0 ], [ 34.828011357000094, 3.758255380000094, 0.0 ], [ 34.827554246000034, 3.757317570000112, 0.0 ], [ 34.827844889000175, 3.756831720000037, 0.0 ], [ 34.82834375300007, 3.756298152000113, 0.0 ], [ 34.828790561000119, 3.755833992000078, 0.0 ], [ 34.828820927000152, 3.755534673000113, 0.0 ], [ 34.827692789000025, 3.753971657000079, 0.0 ], [ 34.827211548000093, 3.753313644000116, 0.0 ], [ 34.826721360000022, 3.752923229000032, 0.0 ], [ 34.826270214000033, 3.752068653000038, 0.0 ], [ 34.824893458000133, 3.749606597000081, 0.0 ], [ 34.823667445000069, 3.747440063000056, 0.0 ], [ 34.823528631000102, 3.747218828000143, 0.0 ], [ 34.823285705999979, 3.746346901000038, 0.0 ], [ 34.823012415000051, 3.745830685000101, 0.0 ], [ 34.822410920000095, 3.744372306000173, 0.0 ], [ 34.822741879000034, 3.744140635000065, 0.0 ] ] ] ] } },
{ "type": "Feature", "properties": { "Id": null, "Shape_Leng": 0.2599282835, "Shape_Area": 0.00111778781047, "Camp_Name": null, "Sample": 1012, "Name": "Kalobeyei" }, "geometry": { "type": "MultiPolygon", "coordinates": [ [ [ [ 34.772472095000069, 3.757879259000049, 0.0 ], [ 34.768400100000065, 3.749193923000064, 0.0 ], [ 34.761943903000031, 3.739172476000022, 0.0 ], [ 34.756897808000076, 3.731673560000047, 0.0 ], [ 34.754389036000077, 3.732468892000043, 0.0 ], [ 34.752836303000038, 3.734073504000037, 0.0 ], [ 34.753771345000075, 3.735703990000047, 0.0 ], [ 34.752729184000032, 3.736425313000041, 0.0 ], [ 34.751756171000068, 3.735286230000042, 0.0 ], [ 34.749583812000026, 3.735201958000061, 0.0 ], [ 34.748469883000041, 3.737021045000063, 0.0 ], [ 34.74910191500004, 3.738475880000067, 0.0 ], [ 34.746139931000073, 3.741090968000037, 0.0 ], [ 34.748982287000047, 3.745457699000042, 0.0 ], [ 34.748970493000058, 3.745431163000035, 0.0 ], [ 34.750322873000073, 3.744566269000074, 0.0 ], [ 34.755549788000053, 3.752688613000032, 0.0 ], [ 34.758329485000047, 3.75126739500007, 0.0 ], [ 34.760805646000051, 3.755592732000025, 0.0 ], [ 34.764301508000074, 3.756178372000022, 0.0 ], [ 34.764466774000027, 3.758258032000072, 0.0 ], [ 34.766510761000063, 3.761160066000059, 0.0 ], [ 34.772472095000069, 3.757879259000049, 0.0 ] ] ], [ [ [ 34.760581408000064, 3.763986315000068, 0.0 ], [ 34.756017244000077, 3.756953148000036, 0.0 ], [ 34.754944386000034, 3.757381513000041, 0.0 ], [ 34.753838242000029, 3.755299706000073, 0.0 ], [ 34.753029550000065, 3.75382439200007, 0.0 ], [ 34.751323281000055, 3.754525198000067, 0.0 ], [ 34.750404511000056, 3.752709807000031, 0.0 ], [ 34.748566233000076, 3.752635954000027, 0.0 ], [ 34.74743232600008, 3.750860732000035, 0.0 ], [ 34.746795887000076, 3.749939551000068, 0.0 ], [ 34.745542919000059, 3.747988783000039, 0.0 ], [ 34.742147163000027, 3.746380780000038, 0.0 ], [ 34.740925932000039, 3.747377047000043, 0.0 ], [ 34.739818342000035, 3.746421860000055, 0.0 ], [ 34.736374492000039, 3.74868630900005, 0.0 ], [ 34.737852674000067, 3.750620527000024, 0.0 ], [ 34.736324325000055, 3.751375728000028, 0.0 ], [ 34.735399220000033, 3.751706728000045, 0.0 ], [ 34.73428255400006, 3.752199210000072, 0.0 ], [ 34.73628356200004, 3.756526414000064, 0.0 ], [ 34.744659302000059, 3.769032056000071, 0.0 ], [ 34.745835734000025, 3.769708920000028, 0.0 ], [ 34.747738600000048, 3.772791269000038, 0.0 ], [ 34.760581408000064, 3.763986315000068, 0.0 ] ] ], [ [ [ 34.731342014000063, 3.75915038100004, 0.0 ], [ 34.728732944000058, 3.753352449000033, 0.0 ], [ 34.728187773000059, 3.753398352000033, 0.0 ], [ 34.719701479000037, 3.755246609000039, 0.0 ], [ 34.717236247000073, 3.758270413000048, 0.0 ], [ 34.718344567000031, 3.761428999000032, 0.0 ], [ 34.721592427000076, 3.77076224800004, 0.0 ], [ 34.731276971000057, 3.784554764000063, 0.0 ], [ 34.742350416000079, 3.781370050000021, 0.0 ], [ 34.743224835000035, 3.779456814000071, 0.0 ], [ 34.735634061000042, 3.764685553000049, 0.0 ], [ 34.732424043000037, 3.759689120000075, 0.0 ], [ 34.731342014000063, 3.75915038100004, 0.0 ] ] ] ] } }
]
}
