{
"type": "FeatureCollection",
"name": "tana_buffer_1km",
"crs": { "type": "name", "properties": { "name": "urn:ogc:def:crs:OGC:1.3:CRS84" } },
"features": [
{ "type": "Feature", "properties": { "Name": "Tana River 1km Buffer", "Risk_Level": "High Risk" }, "geometry": { "type": "Polygon", "coordinates": [ [ [ 39.204122535846658, -0.291952054771396 ], [ 39.603154255561343, -0.441589088997349 ], [ 39.603897639636763, -0.441906702041671 ], [ 39.604609459692426, -0.442289856571473 ], [ 39.605283951238953, -0.442735449699663 ], [ 39.605915652082182, -0.443239872895389 ], [ 40.00591565208218, -0.79324032092522 ], [ 40.006543107016725, -0.793845533585381 ], [ 40.007108935105563, -0.794508712590339 ], [ 40.007607807045609, -0.795223611702202 ], [ 40.008035024166361, -0.795983497553826 ], [ 40.208035024166364, -1.195983985991677 ], [ 40.208390057599011, -1.19679072261066 ], [ 40.208664290190512, -1.197628366096802 ], [ 40.208855080931095, -1.198488849460697 ], [ 40.208960592401617, -1.199363885759413 ], [ 40.208979808468968, -1.200245047904964 ], [ 40.208912544071893, -1.201123849822175 ], [ 40.208759447003317, -1.201991828174316 ], [ 40.208521991671702, -1.202840623869426 ], [ 40.208202464901689, -1.203662062562417 ], [ 40.207803943910761, -1.204448233377658 ], [ 40.207330266673893, -1.205191565093967 ], [ 40.206785994961827, -1.205884899058318 ], [ 40.20617637040867, -1.206521558126134 ], [ 40.205507264032136, -1.207095410964276 ], [ 40.204785119692396, -1.207600931097525 ], [ 40.204016892034197, -1.20803325012996 ], [ 40.203209979509872, -1.208388204628761 ], [ 40.202372153128096, -1.208662376218944 ], [ 40.201511481614951, -1.208853124502997 ], [ 40.200636253707593, -1.208958612488384 ], [ 40.199754898329225, -1.208977824278106 ], [ 40.198875903413921, -1.208910574853952 ], [ 40.198007734163241, -1.20875751185826 ], [ 40.197158751521656, -1.20852010935701 ], [ 40.196337131656094, -1.208200653644324 ], [ 40.195550787215019, -1.207802221225042 ], [ 40.194807291125244, -1.207328649187398 ], [ 40.194113803660571, -1.206784498251067 ], [ 40.193477003484354, -1.206175008846414 ], [ 40.192903023330423, -1.205506050647849 ], [ 40.192397390941409, -1.204784066047269 ], [ 40.191964975833649, -1.20401600811189 ], [ 39.99275490916213, -0.805596453161194 ], [ 39.59531481036165, -0.457836806917814 ], [ 39.196845744438662, -0.308411047043269 ], [ 39.195904512063798, -0.30799513689165 ], [ 39.195017020587748, -0.307474314755177 ], [ 38.895017020587744, -0.107474407530243 ], [ 38.894308393742499, -0.106949999681781 ], [ 38.893654580176872, -0.106358659534368 ], [ 38.893061876472892, -0.105706082013264 ], [ 38.892535990691243, -0.104998551793157 ], [ 38.892081987399479, -0.104242882773448 ], [ 38.891704238897482, -0.103446352456814 ], [ 38.891406383109832, -0.102616631862996 ], [ 38.891191288550587, -0.101761711652781 ], [ 38.891061026697926, -0.100889825173653 ], [ 38.891016852044707, -0.1000093691682 ], [ 38.891059190016982, -0.099128822908916 ], [ 38.891187632876935, -0.098256666538171 ], [ 38.891400943649622, -0.097401299399773 ], [ 38.891697068035683, -0.096570959148638 ], [ 38.892073154195401, -0.095773642417596 ], [ 38.892525580213466, -0.095017027805353 ], [ 38.893049988980017, -0.09430840192728 ], [ 38.893641330151951, -0.093654589241205 ], [ 38.894293908790523, -0.093061886324036 ], [ 38.895001440206705, -0.092536001232157 ], [ 38.895757110486194, -0.092081998529609 ], [ 38.896553642111094, -0.091704250513457 ], [ 38.897383364046448, -0.091406395106082 ], [ 38.898238285616429, -0.091191300819908 ], [ 38.899110173458972, -0.091061039131999 ], [ 38.899990630817527, -0.091016864534541 ], [ 38.900871178406433, -0.091059202453372 ], [ 38.901743336071057, -0.091187645150888 ], [ 38.902598704456317, -0.091400955652784 ], [ 38.903429045897056, -0.091697079660829 ], [ 38.904226363751299, -0.092073165336928 ], [ 38.904982979412253, -0.092525590767956 ], [ 39.204122535846658, -0.291952054771396 ] ] ] } }
]
}
