{
"type": "FeatureCollection",
"name": "tana_buffer_3km",
"crs": { "type": "name", "properties": { "name": "urn:ogc:def:crs:OGC:1.3:CRS84" } },
"features": [
{ "type": "Feature", "properties": { "Name": "Tana River 3km Buffer", "Risk_Level": "Medium Risk" }, "geometry": { "type": "Polygon", "coordinates": [ [ [ 39.212367607539953, -0.275856147192256 ], [ 39.609462766684032, -0.424767238624381 ], [ 39.611692918910286, -0.425720079833988 ], [ 39.613828379077276, -0.426869545826067 ], [ 39.615851853716869, -0.42820632786336 ], [ 39.617746956246542, -0.42971960026911 ], [ 40.017746956246533, -0.779720929744312 ], [ 40.019629321050182, -0.781536573346854 ], [ 40.021326805316683, -0.783526115926121 ], [ 40.022823421136835, -0.78567081855947 ], [ 40.024105072499061, -0.787950480945635 ], [ 40.224105072499064, -1.187951940364624 ], [ 40.225170172797014, -1.190372156575977 ], [ 40.225992870571503, -1.192885092137639 ], [ 40.226565242793242, -1.195466545881709 ], [ 40.226881777204845, -1.198091656834749 ], [ 40.22693942540689, -1.200735143649012 ], [ 40.226737632215681, -1.203371548079518 ], [ 40.226278341009959, -1.205975480161966 ], [ 40.225565975015108, -1.208521862730254 ], [ 40.224607394705075, -1.210986172918787 ], [ 40.223411831732271, -1.213344678323937 ], [ 40.221990800021665, -1.215574665550548 ], [ 40.220357984885467, -1.217654658942821 ], [ 40.218529111226005, -1.219564627393505 ], [ 40.216521792096394, -1.221286177240234 ], [ 40.214355359077175, -1.222802729391846 ], [ 40.212050676102592, -1.224099678979468 ], [ 40.209629938529581, -1.225164535995387 ], [ 40.207116459384267, -1.225987045565872 ], [ 40.204534444844825, -1.226559286700147 ], [ 40.201908761122766, -1.226875748564958 ], [ 40.19926469498764, -1.226933383550534 ], [ 40.196627710241749, -1.226731636617149 ], [ 40.194023202489717, -1.226272450639795 ], [ 40.191476254564954, -1.225560247699536 ], [ 40.189011394968276, -1.224601886501614 ], [ 40.186652361645045, -1.22340659633018 ], [ 40.184421873375733, -1.22198588817541 ], [ 40.182341410981678, -1.220353443888449 ], [ 40.180431010453049, -1.218524984431233 ], [ 40.178709069991243, -1.216518118489451 ], [ 40.177192172824228, -1.214352172906017 ], [ 40.175894927500941, -1.212048006567489 ], [ 39.978264727486412, -0.816789336370849 ], [ 39.585944431084954, -0.473510394910351 ], [ 39.190537233315979, -0.325233121009252 ], [ 39.187713536191382, -0.323985392527437 ], [ 39.185051061763239, -0.322422928440805 ], [ 38.885051061763235, -0.12242321697653 ], [ 38.882925181227506, -0.120849994222161 ], [ 38.880963740530603, -0.119075974594897 ], [ 38.879185629418672, -0.117118242837969 ], [ 38.877607972073733, -0.114995652943983 ], [ 38.876245962198446, -0.112728646582152 ], [ 38.875112716692477, -0.110339056235151 ], [ 38.874219149329512, -0.107849894941464 ], [ 38.873573865651771, -0.105285134668056 ], [ 38.873183080093789, -0.102669475447744 ], [ 38.873050556134118, -0.100028107504591 ], [ 38.873177570050949, -0.097386468658196 ], [ 38.873562898630809, -0.094769999343231 ], [ 38.87420283094886, -0.092203897603556 ], [ 38.875091204107029, -0.089712876420504 ], [ 38.876219462586185, -0.087320925712439 ], [ 38.8775767406404, -0.085051081297719 ], [ 38.879149966940048, -0.082925203046133 ], [ 38.880923990455848, -0.080963764355366 ], [ 38.882881726371572, -0.079185654980003 ], [ 38.885004320620133, -0.077607999111954 ], [ 38.887271331458592, -0.076245990464317 ], [ 38.889660926333306, -0.075112745946919 ], [ 38.892150092139346, -0.074219179342722 ], [ 38.894714856849284, -0.073573896201666 ], [ 38.897330520376904, -0.073183110964164 ], [ 38.899971892452584, -0.073050587112407 ], [ 38.902613535219317, -0.07317760092582 ], [ 38.905230008213181, -0.073562929189754 ], [ 38.907796113368931, -0.074202860975752 ], [ 38.910287137691164, -0.075091233379961 ], [ 38.912679091253899, -0.076219490875511 ], [ 38.914948938236762, -0.07757676770726 ], [ 39.212367607539953, -0.275856147192256 ] ] ] } }
]
}
